{"type": "FeatureCollection", "features": [ {"type": "Feature", "properties": {"norad_id": 17070, "name": "POLAR BEAR", "group": "nnss", "lat": 32.341941051663795, "lon": 3.002001092184101, "alt_km": 966.601453692504, "timestamp": "2025-12-25T22:42:17.279956+00:00", "meta": {"OBJECT_NAME": "POLAR BEAR", "OBJECT_ID": "1986-088A", "EPOCH": "2025-12-25T13:33:27.098208", "MEAN_MOTION": 13.75253429, "ECCENTRICITY": 0.0041279, "INCLINATION": 89.6169, "RA_OF_ASC_NODE": 183.2601, "ARG_OF_PERICENTER": 82.3818, "MEAN_ANOMALY": 338.9269, "EPHEMERIS_TYPE": 0, "CLASSIFICATION_TYPE": "U", "NORAD_CAT_ID": 17070, "ELEMENT_SET_NO": 999, "REV_AT_EPOCH": 96155, "BSTAR": 0.00010362, "MEAN_MOTION_DOT": 1.11e-06, "MEAN_MOTION_DDOT": 0}, "tle": {"line1": "1 17070U 86088A   25359.56489697  .00000111  00000+0  10362-3 0  9990", "line2": "2 17070  89.6169 183.2601 0041279  82.3818 338.9269 13.75253429961557"}}, "geometry": {"type": "Point", "coordinates": [3.002001092184101, 32.341941051663795]}}, {"type": "Feature", "properties": {"norad_id": 18361, "name": "OSCAR 27", "group": "nnss", "lat": 43.14218742603916, "lon": 79.41563275097755, "alt_km": 1148.9236583714246, "timestamp": "2025-12-25T22:42:17.279966+00:00", "meta": {"OBJECT_NAME": "OSCAR 27", "OBJECT_ID": "1987-080A", "EPOCH": "2025-12-25T17:07:48.108000", "MEAN_MOTION": 13.44909384, "ECCENTRICITY": 0.010401, "INCLINATION": 90.3736, "RA_OF_ASC_NODE": 79.7573, "ARG_OF_PERICENTER": 186.4805, "MEAN_ANOMALY": 173.5005, "EPHEMERIS_TYPE": 0, "CLASSIFICATION_TYPE": "U", "NORAD_CAT_ID": 18361, "ELEMENT_SET_NO": 999, "REV_AT_EPOCH": 87731, "BSTAR": 0.00017118, "MEAN_MOTION_DOT": 1.12e-06, "MEAN_MOTION_DDOT": 0}, "tle": {"line1": "1 18361U 87080A   25359.71375125  .00000112  00000+0  17118-3 0  9991", "line2": "2 18361  90.3736  79.7573 0104010 186.4805 173.5005 13.44909384877317"}}, "geometry": {"type": "Point", "coordinates": [79.41563275097755, 43.14218742603916]}}, {"type": "Feature", "properties": {"norad_id": 18362, "name": "OSCAR 29", "group": "nnss", "lat": 34.177550934724685, "lon": 79.97133383060996, "alt_km": 1168.5375820677873, "timestamp": "2025-12-25T22:42:17.279977+00:00", "meta": {"OBJECT_NAME": "OSCAR 29", "OBJECT_ID": "1987-080B", "EPOCH": "2025-12-25T17:43:56.449920", "MEAN_MOTION": 13.4445087, "ECCENTRICITY": 0.0104815, "INCLINATION": 90.3749, "RA_OF_ASC_NODE": 80.2183, "ARG_OF_PERICENTER": 209.5518, "MEAN_ANOMALY": 262.6381, "EPHEMERIS_TYPE": 0, "CLASSIFICATION_TYPE": "U", "NORAD_CAT_ID": 18362, "ELEMENT_SET_NO": 999, "REV_AT_EPOCH": 87684, "BSTAR": 0.000157, "MEAN_MOTION_DOT": 1.02e-06, "MEAN_MOTION_DDOT": 0}, "tle": {"line1": "1 18362U 87080B   25359.73884780  .00000102  00000+0  15700-3 0  9990", "line2": "2 18362  90.3749  80.2183 0104815 209.5518 262.6381 13.44450870876842"}}, "geometry": {"type": "Point", "coordinates": [79.97133383060996, 34.177550934724685]}}, {"type": "Feature", "properties": {"norad_id": 19070, "name": "OSCAR 23", "group": "nnss", "lat": 82.86063598109466, "lon": -160.63900977187532, "alt_km": 1046.9240762260679, "timestamp": "2025-12-25T22:42:17.279987+00:00", "meta": {"OBJECT_NAME": "OSCAR 23", "OBJECT_ID": "1988-033A", "EPOCH": "2025-12-25T15:34:55.886016", "MEAN_MOTION": 13.27789128, "ECCENTRICITY": 0.0190526, "INCLINATION": 90.3203, "RA_OF_ASC_NODE": 16.7922, "ARG_OF_PERICENTER": 144.1187, "MEAN_ANOMALY": 336.7875, "EPHEMERIS_TYPE": 0, "CLASSIFICATION_TYPE": "U", "NORAD_CAT_ID": 19070, "ELEMENT_SET_NO": 999, "REV_AT_EPOCH": 82424, "BSTAR": 9.5671e-05, "MEAN_MOTION_DOT": 5.7e-07, "MEAN_MOTION_DDOT": 0}, "tle": {"line1": "1 19070U 88033A   25359.64925794  .00000057  00000+0  95671-4 0  9992", "line2": "2 19070  90.3203  16.7922 0190526 144.1187 336.7875 13.27789128824249"}}, "geometry": {"type": "Point", "coordinates": [-160.63900977187532, 82.86063598109466]}}, {"type": "Feature", "properties": {"norad_id": 19071, "name": "OSCAR 32", "group": "nnss", "lat": -39.17193040787247, "lon": -163.32749878071525, "alt_km": 1155.4247192095554, "timestamp": "2025-12-25T22:42:17.279997+00:00", "meta": {"OBJECT_NAME": "OSCAR 32", "OBJECT_ID": "1988-033B", "EPOCH": "2025-12-25T13:08:21.516000", "MEAN_MOTION": 13.27955818, "ECCENTRICITY": 0.0189258, "INCLINATION": 90.3209, "RA_OF_ASC_NODE": 16.9217, "ARG_OF_PERICENTER": 131.3315, "MEAN_ANOMALY": 341.3068, "EPHEMERIS_TYPE": 0, "CLASSIFICATION_TYPE": "U", "NORAD_CAT_ID": 19071, "ELEMENT_SET_NO": 999, "REV_AT_EPOCH": 82435, "BSTAR": 0.00011842, "MEAN_MOTION_DOT": 6.9e-07, "MEAN_MOTION_DDOT": 0}, "tle": {"line1": "1 19071U 88033B   25359.54747125  .00000069  00000+0  11842-3 0  9992", "line2": "2 19071  90.3209  16.9217 0189258 131.3315 341.3068 13.27955818824355"}}, "geometry": {"type": "Point", "coordinates": [-163.32749878071525, -39.17193040787247]}}, {"type": "Feature", "properties": {"norad_id": 19223, "name": "NOVA 2", "group": "nnss", "lat": 4.0833688353943005, "lon": -101.74529363128741, "alt_km": 1197.3377426111956, "timestamp": "2025-12-25T22:42:17.280007+00:00", "meta": {"OBJECT_NAME": "NOVA 2", "OBJECT_ID": "1988-052A", "EPOCH": "2025-12-25T16:57:54.227232", "MEAN_MOTION": 13.22937418, "ECCENTRICITY": 0.0029485, "INCLINATION": 89.9863, "RA_OF_ASC_NODE": 78.256, "ARG_OF_PERICENTER": 340.9131, "MEAN_ANOMALY": 136.6445, "EPHEMERIS_TYPE": 0, "CLASSIFICATION_TYPE": "U", "NORAD_CAT_ID": 19223, "ELEMENT_SET_NO": 999, "REV_AT_EPOCH": 81119, "BSTAR": 0.00013152, "MEAN_MOTION_DOT": 6.4e-07, "MEAN_MOTION_DDOT": 0}, "tle": {"line1": "1 19223U 88052A   25359.70687763  .00000064  00000+0  13152-3 0  9992", "line2": "2 19223  89.9863  78.2560 0029485 340.9131 136.6445 13.22937418811198"}}, "geometry": {"type": "Point", "coordinates": [-101.74529363128741, 4.0833688353943005]}}, {"type": "Feature", "properties": {"norad_id": 19419, "name": "OSCAR 25", "group": "nnss", "lat": 74.21749345170885, "lon": -159.5942630308541, "alt_km": 1106.6081267286709, "timestamp": "2025-12-25T22:42:17.280018+00:00", "meta": {"OBJECT_NAME": "OSCAR 25", "OBJECT_ID": "1988-074A", "EPOCH": "2025-12-25T15:36:48.885120", "MEAN_MOTION": 13.42625604, "ECCENTRICITY": 0.0095249, "INCLINATION": 90.0336, "RA_OF_ASC_NODE": 20.2858, "ARG_OF_PERICENTER": 208.5252, "MEAN_ANOMALY": 271.0137, "EPHEMERIS_TYPE": 0, "CLASSIFICATION_TYPE": "U", "NORAD_CAT_ID": 19419, "ELEMENT_SET_NO": 999, "REV_AT_EPOCH": 82813, "BSTAR": 0.00011627, "MEAN_MOTION_DOT": 7.6e-07, "MEAN_MOTION_DDOT": 0}, "tle": {"line1": "1 19419U 88074A   25359.65056580  .00000076  00000+0  11627-3 0  9992", "line2": "2 19419  90.0336  20.2858 0095249 208.5252 271.0137 13.42625604828131"}}, "geometry": {"type": "Point", "coordinates": [-159.5942630308541, 74.21749345170885]}}, {"type": "Feature", "properties": {"norad_id": 19420, "name": "OSCAR 31", "group": "nnss", "lat": -10.783280974175398, "lon": 20.6457648943284, "alt_km": 1162.7747455542176, "timestamp": "2025-12-25T22:42:17.280028+00:00", "meta": {"OBJECT_NAME": "OSCAR 31", "OBJECT_ID": "1988-074B", "EPOCH": "2025-12-25T14:24:12.037248", "MEAN_MOTION": 13.4258666, "ECCENTRICITY": 0.0093641, "INCLINATION": 90.0354, "RA_OF_ASC_NODE": 20.6378, "ARG_OF_PERICENTER": 202.82, "MEAN_ANOMALY": 275.1045, "EPHEMERIS_TYPE": 0, "CLASSIFICATION_TYPE": "U", "NORAD_CAT_ID": 19420, "ELEMENT_SET_NO": 999, "REV_AT_EPOCH": 82823, "BSTAR": 0.00010561, "MEAN_MOTION_DOT": 7e-07, "MEAN_MOTION_DDOT": 0}, "tle": {"line1": "1 19420U 88074B   25359.60013932  .00000070  00000+0  10561-3 0  9993", "line2": "2 19420  90.0354  20.6378 0093641 202.8200 275.1045 13.42586660828230"}}, "geometry": {"type": "Point", "coordinates": [20.6457648943284, -10.783280974175398]}}]}